KUZGTU 1 (RS47S)        
1 57217U 23091AV  26182.61852076  .00014541  00000+0  49904-3 0  9994
2 57217  97.5057 247.2476 0011481  52.6345 307.5940 15.30192284166588
SONATE-2                
1 59112U 24043Q   26181.87231082  .00046267  00000+0  57664-3 0  9995
2 59112  97.5541 333.1180 0007194 151.0816 209.0840 15.59751983130025
MESAT1                  
1 60209U 24125G   26182.50246145  .00068143  00000+0  69468-3 0  9994
2 60209  97.2263  40.3256 0010859 155.1491 205.0294 15.64819211111808
OOV-CUBE (TUBSAT-30)    
1 60240U 24128F   26182.56074397  .00001946  00000+0  15749-3 0  9997
2 60240  61.9925 175.4501 0042863 136.9711 223.4745 15.02825965108278
COLIBRI-S (RS67S)       
1 61746U 24199M   26182.60623789  .00027089  00000+0  51283-3 0  9996
2 61746  97.2969  56.5960 0007174 212.4093 147.6718 15.48321904139643
HORS 3 (RS81S)          
1 61753U 24199U   26182.62868961  .00044931  00000+0  64492-3 0  9990
2 61753  97.2952  58.7654 0005153 202.4994 157.6036 15.55986548139802
HORS 4 (RS82S)          
1 61754U 24199V   26182.60827700  .00059584  00000+0  70476-3 0  9994
2 61754  97.2895  60.0423 0005287 189.9211 170.1943 15.61084010139894
SIT-2086                
1 61764U 24199AF  26182.62449714  .00044247  00000+0  68051-3 0  9998
2 61764  97.2909  59.1878 0006502 187.5093 172.6064 15.54087673136671
HYPERVIEW 1G (RS66S)    
1 61772U 24199AP  26182.52265967  .00194864  00000+0  10239-2 0  9997
2 61772  97.2835  63.0072 0006999 175.3754 184.7580 15.80168306136935
ALTAIR (RS65S)          
1 61779U 24199AW  26182.62883297  .00012170  00000+0  33445-3 0  9991
2 61779  97.3007  51.8856 0010878 250.4120 109.5951 15.37301926139335
ASRTU-1 (AO-123)        
1 61781U 24199AY  26182.62966249  .00008718  00000+0  25141-3 0  9990
2 61781  97.2978  51.1707 0011955 254.4084 105.5840 15.35879718136148
SAMSAT-IONOSPHERE (RS7*)
1 61784U 24199BB  26182.63689775  .00056185  00000+0  72128-3 0  9998
2 61784  97.2920  58.8749 0007404 208.2116 151.8741 15.58922453139816
RTU MIREA 1 (RS51S)     
1 61785U 24199BC  26182.62788989  .00070340  00000+0  77950-3 0  9992
2 61785  97.2905  59.7751 0007468 200.5488 159.5472 15.62717683136725
TEVEL2-4                
1 63213U 25052D   26182.65552543  .00022944  00000+0  67406-3 0  9999
2 63213  97.3888  79.0745 0004653  76.7769 283.3993 15.35122895 72335
TEVEL2-5                
1 63214U 25052E   26181.24344693  .00016701  00000+0  49542-3 0  9994
2 63214  97.3890  77.6036 0004701  80.7172 279.4603 15.34882414 72112
TEVEL2-6                
1 63215U 25052F   26182.23399102  .00024838  00000+0  73468-3 0  9994
2 63215  97.3895  78.5803 0004461  79.5368 280.6378 15.34892606 72269
TEVEL2-1                
1 63217U 25052H   26182.65927922  .00021922  00000+0  66005-3 0  9999
2 63217  97.3861  78.6135 0004959  86.0738 274.1071 15.34353658 72312
TEVEL2-3                
1 63218U 25052J   26182.32730917  .00024724  00000+0  74270-3 0  9996
2 63218  97.3865  78.3051 0004784  88.1642 272.0149 15.34403112 72262
TEVEL2-2                
1 63219U 25052K   26182.65950123  .00021924  00000+0  65990-3 0  9994
2 63219  97.3863  78.6161 0004976  87.0260 273.1553 15.34364033 72318
OTP-2                   
1 63235U 25052AB  26181.94920219  .00009129  00000+0  37745-3 0  9996
2 63235  97.3857  74.1742 0008165 109.0770 251.1352 15.24168530 71966
TEVEL2-9                
1 63237U 25052AD  26182.26397641  .00022932  00000+0  73495-3 0  9990
2 63237  97.3927  77.5652 0008265  93.8568 266.3619 15.32333335 72184
TEVEL2-7                
1 63238U 25052AE  26182.63421137  .00019376  00000+0  62738-3 0  9996
2 63238  97.3926  77.8444 0008409  92.9633 267.2571 15.32037018 72231
TEVEL2-8                
1 63239U 25052AF  26182.25070963  .00022297  00000+0  72189-3 0  9999
2 63239  97.3927  77.4382 0008433  94.5817 265.6388 15.32010872 72179
INNOSAT 16 (RS92S7)     
1 64878U 25155C   26182.56375420  .00006664  00000+0  26459-3 0  9992
2 64878  97.4573 149.6472 0012018 129.1221 231.1088 15.25608996 82861
GEOSCAN 6 (RS92S6)      
1 64879U 25155D   26182.63271841  .00011974  00000+0  40885-3 0  9992
2 64879  97.4565 151.2432 0009755 119.6508 240.5705 15.30421309 82973
GEOSCAN 1 (RS92S1)      
1 64880U 25155E   26182.56406317  .00012621  00000+0  42257-3 0  9999
2 64880  97.4561 151.3348 0009707 119.9330 240.2876 15.31045965 82978
239ALFEROV (RS61S)      
1 64881U 25155F   26182.64329521  .00017677  00000+0  54989-3 0  9991
2 64881  97.4561 152.0254 0009380 118.5916 241.6271 15.33332382 83020
GEOSCAN 2 (RS92S2)      
1 64890U 25155Q   26182.62058290  .00012607  00000+0  41876-3 0  9990
2 64890  97.4559 151.5499 0009178 109.2903 250.9331 15.31306461 82992
GEOSCAN 5 (RS92S5)      
1 64891U 25155R   26182.56409539  .00016669  00000+0  51386-3 0  9999
2 64891  97.4552 152.0885 0008297 122.1921 238.0127 15.33642613 83025
GEOSCAN 4 (RS92S4)      
1 64892U 25155S   26182.61205604  .00017441  00000+0  53474-3 0  9992
2 64892  97.4556 152.1894 0008314 121.9474 238.2578 15.33805330 83031
