OBJECT_NAME,OBJECT_ID,EPOCH,MEAN_MOTION,ECCENTRICITY,INCLINATION,RA_OF_ASC_NODE,ARG_OF_PERICENTER,MEAN_ANOMALY,EPHEMERIS_TYPE,CLASSIFICATION_TYPE,NORAD_CAT_ID,ELEMENT_SET_NO,REV_AT_EPOCH,BSTAR,MEAN_MOTION_DOT,MEAN_MOTION_DDOT
KUZGTU 1 (RS47S),2023-091AV,2026-07-01T14:50:40.193664,15.30192284,.00114816,97.5057,247.2476,52.6345,307.5940,0,U,57217,999,16658,.49904103E-3,.14541E-3,0
SONATE-2,2024-043Q,2026-06-30T20:56:07.654848,15.59751983,.0007194,97.5541,333.1180,151.0816,209.0840,0,U,59112,999,13002,.57664E-3,.46267E-3,0
MESAT1,2024-125G,2026-07-01T12:03:32.669280,15.64819211,.00108591,97.2263,40.3256,155.1491,205.0294,0,U,60209,999,11180,.69468072E-3,.68143E-3,0
OOV-CUBE (TUBSAT-30),2024-128F,2026-07-01T13:27:28.279008,15.02825965,.00428632,61.9925,175.4501,136.9711,223.4745,0,U,60240,999,10827,.15749339E-3,.1946E-4,0
COLIBRI-S (RS67S),2024-199M,2026-07-01T14:32:58.953696,15.48321904,.00071745,97.2969,56.5960,212.4093,147.6718,0,U,61746,999,13964,.51283106E-3,.27089E-3,0
HORS 3 (RS81S),2024-199U,2026-07-01T15:05:18.782304,15.55986548,.00051531,97.2952,58.7654,202.4994,157.6036,0,U,61753,999,13980,.64491718E-3,.44931E-3,0
HORS 4 (RS82S),2024-199V,2026-07-01T14:35:55.132800,15.61084010,.0005287,97.2895,60.0423,189.9211,170.1943,0,U,61754,999,13989,.70475784E-3,.59584E-3,0
SIT-2086,2024-199AF,2026-07-01T14:59:16.552896,15.54087673,.00065024,97.2909,59.1878,187.5093,172.6064,0,U,61764,999,13667,.68051063E-3,.44247E-3,0
HYPERVIEW 1G (RS66S),2024-199AP,2026-07-01T12:32:37.795488,15.80168306,.0006999,97.2835,63.0072,175.3754,184.7580,0,U,61772,999,13693,.10239405E-2,.194864E-2,0
ALTAIR (RS65S),2024-199AW,2026-07-01T15:05:31.168608,15.37301926,.00108789,97.3007,51.8856,250.4120,109.5951,0,U,61779,999,13933,.33445321E-3,.1217E-3,0
ASRTU-1 (AO-123),2024-199AY,2026-07-01T15:06:42.839136,15.35879718,.00119557,97.2978,51.1707,254.4084,105.5840,0,U,61781,999,13614,.25141098E-3,.8718E-4,0
SAMSAT-IONOSPHERE (RS75S),2024-199BB,2026-07-01T15:17:07.965600,15.58922453,.00074043,97.2920,58.8749,208.2116,151.8741,0,U,61784,999,13981,.72127525E-3,.56185E-3,0
RTU MIREA 1 (RS51S),2024-199BC,2026-07-01T15:04:09.686496,15.62717683,.00074683,97.2905,59.7751,200.5488,159.5472,0,U,61785,999,13672,.77950231E-3,.7034E-3,0
TEVEL2-4,2025-052D,2026-07-01T15:43:57.397152,15.35122895,.00046533,97.3888,79.0745,76.7769,283.3993,0,U,63213,999,7233,.67405526E-3,.22944E-3,0
TEVEL2-5,2025-052E,2026-06-30T05:50:33.814752,15.34882414,.00047019,97.3890,77.6036,80.7172,279.4603,0,U,63214,999,7211,.49541717E-3,.16701E-3,0
TEVEL2-6,2025-052F,2026-07-01T05:36:56.824128,15.34892606,.00044619,97.3895,78.5803,79.5368,280.6378,0,U,63215,999,7226,.73468096E-3,.24838E-3,0
TEVEL2-1,2025-052H,2026-07-01T15:49:21.724608,15.34353658,.00049593,97.3861,78.6135,86.0738,274.1071,0,U,63217,999,7231,.66004704E-3,.21922E-3,0
TEVEL2-3,2025-052J,2026-07-01T07:51:19.512288,15.34403112,.00047847,97.3865,78.3051,88.1642,272.0149,0,U,63218,999,7226,.74270485E-3,.24724E-3,0
TEVEL2-2,2025-052K,2026-07-01T15:49:40.906272,15.34364033,.0004976,97.3863,78.6161,87.0260,273.1553,0,U,63219,999,7231,.65989552E-3,.21924E-3,0
OTP-2,2025-052AB,2026-06-30T22:46:51.069216,15.24168530,.0008165,97.3857,74.1742,109.0770,251.1352,0,U,63235,999,7196,.37745E-3,.9129E-4,0
TEVEL2-9,2025-052AD,2026-07-01T06:20:07.561824,15.32333335,.00082654,97.3927,77.5652,93.8568,266.3619,0,U,63237,999,7218,.73495027E-3,.22932E-3,0
TEVEL2-7,2025-052AE,2026-07-01T15:13:15.862368,15.32037018,.00084097,97.3926,77.8444,92.9633,267.2571,0,U,63238,999,7223,.62737702E-3,.19376E-3,0
TEVEL2-8,2025-052AF,2026-07-01T06:01:01.312032,15.32010872,.0008433,97.3927,77.4382,94.5817,265.6388,0,U,63239,999,7217,.72188856E-3,.22297E-3,0
INNOSAT 16 (RS92S7),2025-155C,2026-07-01T13:31:48.362880,15.25608996,.00120182,97.4573,149.6472,129.1221,231.1088,0,U,64878,999,8286,.26459129E-3,.6664E-4,0
GEOSCAN 6 (RS92S6),2025-155D,2026-07-01T15:11:06.870624,15.30421309,.00097559,97.4565,151.2432,119.6508,240.5705,0,U,64879,999,8297,.40884939E-3,.11974E-3,0
GEOSCAN 1 (RS92S1),2025-155E,2026-07-01T13:32:15.057888,15.31045965,.00097077,97.4561,151.3348,119.9330,240.2876,0,U,64880,999,8297,.42256909E-3,.12621E-3,0
239ALFEROV (RS61S),2025-155F,2026-07-01T15:26:20.706144,15.33332382,.00093804,97.4561,152.0254,118.5916,241.6271,0,U,64881,999,8302,.54989391E-3,.17677E-3,0
GEOSCAN 2 (RS92S2),2025-155Q,2026-07-01T14:53:38.362560,15.31306461,.00091781,97.4559,151.5499,109.2903,250.9331,0,U,64890,999,8299,.41876077E-3,.12607E-3,0
GEOSCAN 5 (RS92S5),2025-155R,2026-07-01T13:32:17.841696,15.33642613,.00082973,97.4552,152.0885,122.1921,238.0127,0,U,64891,999,8302,.51386463E-3,.16669E-3,0
GEOSCAN 4 (RS92S4),2025-155S,2026-07-01T14:41:21.641856,15.33805330,.00083145,97.4556,152.1894,121.9474,238.2578,0,U,64892,999,8303,.53473895E-3,.17441E-3,0
